[{"OBJECT_NAME":"ONEWEB-0008","OBJECT_ID":"2019-010C","EPOCH":"2026-03-09T21:35:44.501568","MEAN_MOTION":13.16593372,"ECCENTRICITY":0.00016175,"INCLINATION":87.9001,"RA_OF_ASC_NODE":248.5251,"ARG_OF_PERICENTER":89.3339,"MEAN_ANOMALY":270.7977,"EPHEMERIS_TYPE":0,"CLASSIFICATION_TYPE":"U","NORAD_CAT_ID":44059,"ELEMENT_SET_NO":999,"REV_AT_EPOCH":33866,"BSTAR":-0.00023171046,"MEAN_MOTION_DOT":-7.6e-7,"MEAN_MOTION_DDOT":0},{"OBJECT_NAME":"SCOUT A DEB","OBJECT_ID":"1968-012D","EPOCH":"2026-03-09T14:11:26.158272","MEAN_MOTION":13.29255542,"ECCENTRICITY":0.0186242,"INCLINATION":89.8176,"RA_OF_ASC_NODE":105.3249,"ARG_OF_PERICENTER":174.8352,"MEAN_ANOMALY":314.7696,"EPHEMERIS_TYPE":0,"CLASSIFICATION_TYPE":"U","NORAD_CAT_ID":3214,"ELEMENT_SET_NO":999,"REV_AT_EPOCH":57130,"BSTAR":0.00024251,"MEAN_MOTION_DOT":1.33e-6,"MEAN_MOTION_DDOT":0}]
